start=new Date('2022-11-27T00:00:00.000Z').valueOf();
sats=[{"OBJECT_ID":"2022-010K","CENTER_NAME":"EARTH","INCLINATION":"53.2166","EPHEMERIS_TYPE":"0","BSTAR":"0.00033510000000","RCS_SIZE":"LARGE","RA_OF_ASC_NODE":"262.3032","TIME_SYSTEM":"UTC","MEAN_MOTION":"15.08856730","DECAY_DATE":null,"OBJECT_TYPE":"PAYLOAD","SEMIMAJOR_AXIS":"6917.829","APOAPSIS":"541.770","MEAN_ELEMENT_THEORY":"SGP4","PERIOD":"95.436","MEAN_ANOMALY":"327.8207","COUNTRY_CODE":"US","GP_ID":"218862621","CLASSIFICATION_TYPE":"U","FILE":"3670770","LAUNCH_DATE":"2022-02-03","SITE":"AFETR","NORAD_CAT_ID":"51465","TLE_LINE1":"1 51465U 22010K   22330.54489138  .00005051  00000-0  33510-3 0  9994","EPOCH":"2022-11-26T13:04:38.615232","REF_FRAME":"TEME","PERIAPSIS":"537.618","MEAN_MOTION_DDOT":"0.0000000000000","ECCENTRICITY":"0.00030010","ELEMENT_SET_NO":"999","TLE_LINE2":"2 51465  53.2166 262.3032 0003001  32.2968 327.8207 15.08856730 46291","REV_AT_EPOCH":"4629","OBJECT_NAME":"STARLINK-3401","ARG_OF_PERICENTER":"32.2968","MEAN_MOTION_DOT":"0.00005051"},{"SEMIMAJOR_AXIS":"6917.846","OBJECT_TYPE":"PAYLOAD","DECAY_DATE":null,"TIME_SYSTEM":"UTC","MEAN_MOTION":"15.08851294","RCS_SIZE":"LARGE","RA_OF_ASC_NODE":"263.5746","EPHEMERIS_TYPE":"0","BSTAR":"0.00015235000000","INCLINATION":"53.2184","CENTER_NAME":"EARTH","OBJECT_ID":"2022-010M","ARG_OF_PERICENTER":"29.6367","MEAN_MOTION_DOT":"0.00002138","REV_AT_EPOCH":"4544","OBJECT_NAME":"STARLINK-3178","ECCENTRICITY":"0.00028540","ELEMENT_SET_NO":"999","TLE_LINE2":"2 51467  53.2184 263.5746 0002854  29.6367 330.4787 15.08851294 45445","MEAN_MOTION_DDOT":"0.0000000000000","PERIAPSIS":"537.737","REF_FRAME":"TEME","EPOCH":"2022-11-26T06:16:35.503392","TLE_LINE1":"1 51467U 22010M   22330.26152203  .00002138  00000-0  15235-3 0  9992","SITE":"AFETR","NORAD_CAT_ID":"51467","LAUNCH_DATE":"2022-02-03","FILE":"3670770","GP_ID":"218862373","COUNTRY_CODE":"US","CLASSIFICATION_TYPE":"U","MEAN_ANOMALY":"330.4787","PERIOD":"95.437","APOAPSIS":"541.685","MEAN_ELEMENT_THEORY":"SGP4"},{"ECCENTRICITY":"0.00025820","ELEMENT_SET_NO":"999","TLE_LINE2":"2 51468  53.2160 260.8514 0002582  26.1755 333.9368 15.08850254 45532","MEAN_MOTION_DDOT":"0.0000000000000","PERIAPSIS":"537.928","REF_FRAME":"TEME","ARG_OF_PERICENTER":"26.1755","MEAN_MOTION_DOT":"0.00002138","REV_AT_EPOCH":"4553","OBJECT_NAME":"STARLINK-3174","TLE_LINE1":"1 51468U 22010N   22330.86873172  .00002138  00000-0  15239-3 0  9998","EPOCH":"2022-11-26T20:50:58.420608","SITE":"AFETR","NORAD_CAT_ID":"51468","MEAN_ANOMALY":"333.9368","APOAPSIS":"541.500","PERIOD":"95.437","MEAN_ELEMENT_THEORY":"SGP4","FILE":"3671048","LAUNCH_DATE":"2022-02-03","COUNTRY_CODE":"US","GP_ID":"218893139","CLASSIFICATION_TYPE":"U","DECAY_DATE":null,"TIME_SYSTEM":"UTC","MEAN_MOTION":"15.08850254","SEMIMAJOR_AXIS":"6917.849","OBJECT_TYPE":"PAYLOAD","EPHEMERIS_TYPE":"0","BSTAR":"0.00015239000000","RCS_SIZE":"LARGE","RA_OF_ASC_NODE":"260.8514","CENTER_NAME":"EARTH","OBJECT_ID":"2022-010N","INCLINATION":"53.2160"},{"OBJECT_TYPE":"PAYLOAD","SEMIMAJOR_AXIS":"6917.859","MEAN_MOTION":"15.08846868","TIME_SYSTEM":"UTC","DECAY_DATE":null,"INCLINATION":"53.2185","OBJECT_ID":"2022-010P","CENTER_NAME":"EARTH","RA_OF_ASC_NODE":"264.3447","RCS_SIZE":"LARGE","BSTAR":"0.00019616000000","EPHEMERIS_TYPE":"0","EPOCH":"2022-11-26T02:07:32.796192","TLE_LINE1":"1 51469U 22010P   22330.08857403  .00002835  00000-0  19616-3 0  9999","OBJECT_NAME":"STARLINK-3182","REV_AT_EPOCH":"4572","MEAN_MOTION_DOT":"0.00002835","ARG_OF_PERICENTER":"33.0188","MEAN_MOTION_DDOT":"0.0000000000000","PERIAPSIS":"537.645","REF_FRAME":"TEME","TLE_LINE2":"2 51469  53.2185 264.3447 0003006  33.0188 327.0991 15.08846868 45726","ELEMENT_SET_NO":"999","ECCENTRICITY":"0.00030060","CLASSIFICATION_TYPE":"U","GP_ID":"218861871","COUNTRY_CODE":"US","LAUNCH_DATE":"2022-02-03","FILE":"3670770","PERIOD":"95.437","APOAPSIS":"541.804","MEAN_ELEMENT_THEORY":"SGP4","MEAN_ANOMALY":"327.0991","NORAD_CAT_ID":"51469","SITE":"AFETR"},{"ECCENTRICITY":"0.00052570","ELEMENT_SET_NO":"999","TLE_LINE2":"2 51471  53.2167 255.8495 0005257 107.5583 252.5985 15.10656015 45904","MEAN_MOTION_DDOT":"0.0000000000000","PERIAPSIS":"530.566","REF_FRAME":"TEME","ARG_OF_PERICENTER":"107.5583","MEAN_MOTION_DOT":"0.00010752","REV_AT_EPOCH":"4590","OBJECT_NAME":"STARLINK-3165","TLE_LINE1":"1 51471U 22010R   22330.79436038  .00010752  00000-0  65912-3 0  9994","EPOCH":"2022-11-26T19:03:52.736832","SITE":"AFETR","NORAD_CAT_ID":"51471","MEAN_ANOMALY":"252.5985","APOAPSIS":"537.834","PERIOD":"95.323","MEAN_ELEMENT_THEORY":"SGP4","LAUNCH_DATE":"2022-02-03","FILE":"3671048","COUNTRY_CODE":"US","GP_ID":"218894140","CLASSIFICATION_TYPE":"U","DECAY_DATE":null,"TIME_SYSTEM":"UTC","MEAN_MOTION":"15.10656015","SEMIMAJOR_AXIS":"6912.335","OBJECT_TYPE":"PAYLOAD","EPHEMERIS_TYPE":"0","BSTAR":"0.00065912000000","RCS_SIZE":"LARGE","RA_OF_ASC_NODE":"255.8495","CENTER_NAME":"EARTH","OBJECT_ID":"2022-010R","INCLINATION":"53.2167"},{"OBJECT_NAME":"STARLINK-3415","REV_AT_EPOCH":"4583","MEAN_MOTION_DOT":"-0.00002110","ARG_OF_PERICENTER":"37.0183","PERIAPSIS":"537.216","REF_FRAME":"TEME","MEAN_MOTION_DDOT":"0.0000000000000","TLE_LINE2":"2 51472  53.2179 261.1650 0003759  37.0183 323.1068 15.08816727 45833","ECCENTRICITY":"0.00037590","ELEMENT_SET_NO":"999","EPOCH":"2022-11-26T19:10:20.185536","TLE_LINE1":"1 51472U 22010S   22330.79884474 -.00002110  00000-0 -11448-3 0  9992","NORAD_CAT_ID":"51472","SITE":"AFETR","CLASSIFICATION_TYPE":"U","COUNTRY_CODE":"US","GP_ID":"218894889","FILE":"3671048","LAUNCH_DATE":"2022-02-03","PERIOD":"95.439","APOAPSIS":"542.417","MEAN_ELEMENT_THEORY":"SGP4","MEAN_ANOMALY":"323.1068","OBJECT_TYPE":"PAYLOAD","SEMIMAJOR_AXIS":"6917.952","MEAN_MOTION":"15.08816727","TIME_SYSTEM":"UTC","DECAY_DATE":null,"RA_OF_ASC_NODE":"261.1650","RCS_SIZE":"LARGE","BSTAR":"-0.00011448000000","EPHEMERIS_TYPE":"0","INCLINATION":"53.2179","OBJECT_ID":"2022-010S","CENTER_NAME":"EARTH"},{"OBJECT_TYPE":"PAYLOAD","SEMIMAJOR_AXIS":"6917.851","MEAN_MOTION":"15.08849590","TIME_SYSTEM":"UTC","DECAY_DATE":null,"INCLINATION":"53.2168","OBJECT_ID":"2022-016A","CENTER_NAME":"EARTH","RA_OF_ASC_NODE":"311.7408","RCS_SIZE":"LARGE","BSTAR":"0.00024131000000","EPHEMERIS_TYPE":"0","EPOCH":"2022-11-26T16:03:29.578176","TLE_LINE1":"1 51714U 22016A   22330.66909234  .00003555  00000-0  24131-3 0  9990","OBJECT_NAME":"STARLINK-3528","REV_AT_EPOCH":"4241","MEAN_MOTION_DOT":"0.00003555","ARG_OF_PERICENTER":"47.8621","MEAN_MOTION_DDOT":"0.0000000000000","PERIAPSIS":"538.219","REF_FRAME":"TEME","TLE_LINE2":"2 51714  53.2168 311.7408 0002164  47.8621 312.2555 15.08849590 42413","ECCENTRICITY":"0.00021640","ELEMENT_SET_NO":"999","CLASSIFICATION_TYPE":"U","COUNTRY_CODE":"US","GP_ID":"218894649","FILE":"3671048","LAUNCH_DATE":"2022-02-21","APOAPSIS":"541.213","PERIOD":"95.437","MEAN_ELEMENT_THEORY":"SGP4","MEAN_ANOMALY":"312.2555","NORAD_CAT_ID":"51714","SITE":"AFETR"},{"CENTER_NAME":"EARTH","OBJECT_ID":"2022-016B","INCLINATION":"53.2161","BSTAR":"0.00007057000000","EPHEMERIS_TYPE":"0","RA_OF_ASC_NODE":"311.7972","RCS_SIZE":"LARGE","DECAY_DATE":null,"MEAN_MOTION":"15.08845201","TIME_SYSTEM":"UTC","SEMIMAJOR_AXIS":"6917.864","OBJECT_TYPE":"PAYLOAD","MEAN_ANOMALY":"326.2938","APOAPSIS":"541.527","PERIOD":"95.437","MEAN_ELEMENT_THEORY":"SGP4","LAUNCH_DATE":"2022-02-21","FILE":"3671048","CLASSIFICATION_TYPE":"U","COUNTRY_CODE":"US","GP_ID":"218894399","NORAD_CAT_ID":"51715","SITE":"AFETR","TLE_LINE1":"1 51715U 22016B   22330.65805520  .00000835  00000-0  70570-4 0  9990","EPOCH":"2022-11-26T15:47:35.969280","TLE_LINE2":"2 51715  53.2161 311.7972 0002599  33.8219 326.2938 15.08845201 43543","ECCENTRICITY":"0.00025990","ELEMENT_SET_NO":"999","PERIAPSIS":"537.932","MEAN_MOTION_DDOT":"0.0000000000000","REF_FRAME":"TEME","MEAN_MOTION_DOT":"0.00000835","ARG_OF_PERICENTER":"33.8219","OBJECT_NAME":"STARLINK-3533","REV_AT_EPOCH":"4354"},{"MEAN_MOTION":"15.08847838","TIME_SYSTEM":"UTC","DECAY_DATE":null,"OBJECT_TYPE":"PAYLOAD","SEMIMAJOR_AXIS":"6917.856","BSTAR":"0.00024002000000","EPHEMERIS_TYPE":"0","RA_OF_ASC_NODE":"311.7610","RCS_SIZE":"LARGE","OBJECT_ID":"2022-016C","CENTER_NAME":"EARTH","INCLINATION":"53.2154","MEAN_MOTION_DDOT":"0.0000000000000","PERIAPSIS":"537.821","REF_FRAME":"TEME","TLE_LINE2":"2 51716  53.2154 311.7610 0002747  32.2181 327.8978 15.08847838 42415","ELEMENT_SET_NO":"999","ECCENTRICITY":"0.00027470","OBJECT_NAME":"STARLINK-3543","REV_AT_EPOCH":"4241","MEAN_MOTION_DOT":"0.00003534","ARG_OF_PERICENTER":"32.2181","TLE_LINE1":"1 51716U 22016C   22330.66541056  .00003534  00000-0  24002-3 0  9990","EPOCH":"2022-11-26T15:58:11.472384","NORAD_CAT_ID":"51716","SITE":"AFETR","MEAN_ELEMENT_THEORY":"SGP4","APOAPSIS":"541.622","PERIOD":"95.437","MEAN_ANOMALY":"327.8978","CLASSIFICATION_TYPE":"U","COUNTRY_CODE":"US","GP_ID":"218893149","FILE":"3671048","LAUNCH_DATE":"2022-02-21"},{"ARG_OF_PERICENTER":"34.5103","MEAN_MOTION_DOT":"0.00004255","REV_AT_EPOCH":"4241","OBJECT_NAME":"STARLINK-3445","ELEMENT_SET_NO":"999","ECCENTRICITY":"0.00027700","TLE_LINE2":"2 51717  53.2166 311.7750 0002770  34.5103 325.6068 15.08853184 42416","MEAN_MOTION_DDOT":"0.0000000000000","PERIAPSIS":"537.789","REF_FRAME":"TEME","EPOCH":"2022-11-26T15:52:53.461632","TLE_LINE1":"1 51717U 22016D   22330.66172988  .00004255  00000-0  28517-3 0  9991","SITE":"AFETR","NORAD_CAT_ID":"51717","FILE":"3671048","LAUNCH_DATE":"2022-02-21","GP_ID":"218893898","COUNTRY_CODE":"US","CLASSIFICATION_TYPE":"U","MEAN_ANOMALY":"325.6068","APOAPSIS":"541.621","PERIOD":"95.437","MEAN_ELEMENT_THEORY":"SGP4","SEMIMAJOR_AXIS":"6917.840","OBJECT_TYPE":"PAYLOAD","DECAY_DATE":null,"TIME_SYSTEM":"UTC","MEAN_MOTION":"15.08853184","RCS_SIZE":"LARGE","RA_OF_ASC_NODE":"311.7750","EPHEMERIS_TYPE":"0","BSTAR":"0.00028517000000","INCLINATION":"53.2166","CENTER_NAME":"EARTH","OBJECT_ID":"2022-016D"}];
